[
    {
        "Altitude(m)": 611967.1686382269,
        "Argument of Periapsis(deg)": 0.0,
        "Eccentricity": 0.0,
        "Inclination(deg)": 60.0,
        "Latitude(deg)": 59.14013037269184,
        "Longitude(deg)": -158.9077612115745,
        "Mean Anomaly(deg)": 98.18179999999997,
        "RAAN(deg)": 195.00000000000003,
        "Satellite Name": "Test1 864",
        "Satellite Number": 864,
        "Semi-Major Axis(m)": 6980739.136638005,
        "Time(s)": 0
    },
    {
        "Altitude(m)": 611934.3677695049,
        "Argument of Periapsis(deg)": 0.00010418945913296404,
        "Eccentricity": 0.0,
        "Inclination(deg)": 60.0,
        "Latitude(deg)": 58.98649043405671,
        "Longitude(deg)": -157.78451762664798,
        "Mean Anomaly(deg)": 98.80190614546183,
        "RAAN(deg)": 194.99957995086024,
        "Satellite Name": "Test1 864",
        "Satellite Number": 864,
        "Semi-Major Axis(m)": 6980739.136638005,
        "Time(s)": 10
    }
]